NORAD_CAT_ID,OBJECT_NAME,OBJECT_TYPE,EPOCH,MEAN_MOTION,ECCENTRICITY,INCLINATION,RA_OF_ASC_NODE,ARG_OF_PERICENTER,MEAN_ANOMALY,BSTAR,MEAN_MOTION_DOT,MEAN_MOTION_DDOT,TLE_LINE0,TLE_LINE1,TLE_LINE2,SEMIMAJOR_AXIS,PERIOD,APOGEE,PERIGEE,DECAYED
51753.0,STARLINK-3507,PAYLOAD,2022-12-06 05:33:28,15.08854103,0.0003262,53.216,248.8157,39.005,321.1177,9.3429e-05,1.199e-05,0.0,0 STARLINK-3507,1 51753U 22016AR  22340.23157758  .00001199  00000-0  93429-4 0  9992,2 51753  53.2160 248.8157 0003262  39.0050 321.1177 15.08854103 44134,6917.837,95.437,541.9590000000002,537.446,0.0
51753.0,STARLINK-3507,PAYLOAD,2022-12-06 19:51:57,15.08833419,0.0003225,53.2158,246.139,39.5047,320.618,-0.00013636,-2.458e-05,0.0,0 STARLINK-3507,1 51753U 22016AR  22340.82774627 -.00002458  00000-0 -13636-3 0  9999,2 51753  53.2158 246.1390 0003225  39.5047 320.6180 15.08833419 44226,6917.901,95.438,541.997,537.534,0.0
51753.0,STARLINK-3507,PAYLOAD,2022-12-06 21:27:20,15.08837453,0.0003069,53.2164,245.8423,39.9323,320.1894,-3.4281e-05,-8.34e-06,0.0,0 STARLINK-3507,1 51753U 22016AR  22340.89398747 -.00000834  00000-0 -34281-4 0  9997,2 51753  53.2164 245.8423 0003069  39.9323 320.1894 15.08837453 45290,6917.888000000001,95.438,541.876,537.63,0.0
51753.0,STARLINK-3507,PAYLOAD,2022-12-07 19:42:44,15.08837928,0.0002953,53.216,241.6782,37.413,322.7067,4.2713e-05,3.91e-06,0.0,0 STARLINK-3507,1 51753U 22016AR  22341.82134771  .00000391  00000-0  42713-4 0  9991,2 51753  53.2160 241.6782 0002953  37.4130 322.7067 15.08837928 44373,6917.887,95.438,541.795,537.7090000000002,0.0
51753.0,STARLINK-3507,PAYLOAD,2022-12-08 02:04:16,15.08838923,0.0003148,53.2154,240.4894,34.3598,325.7598,3.3468e-05,2.44e-06,0.0,0 STARLINK-3507,1 51753U 22016AR  22342.08630681  .00000244  00000-0  33468-4 0  9995,2 51753  53.2154 240.4894 0003148  34.3598 325.7598 15.08838923 45478,6917.884,95.438,541.9259999999998,537.571,0.0
51753.0,STARLINK-3507,PAYLOAD,2022-12-09 03:30:26,15.08845801,0.0003067,53.2153,235.7329,37.4462,322.6744,0.00017972,2.573e-05,0.0,0 STARLINK-3507,1 51753U 22016AR  22343.14614226  .00002573  00000-0  17972-3 0  9998,2 51753  53.2153 235.7329 0003067  37.4462 322.6744 15.08845801 45631,6917.863,95.437,541.849,537.606,0.0
51753.0,STARLINK-3507,PAYLOAD,2022-12-09 20:59:42,15.08820581,0.0002885,53.2154,232.4625,37.522,322.5973,-0.00026084,-4.436e-05,0.0,0 STARLINK-3507,1 51753U 22016AR  22343.87479732 -.00004436  00000-0 -26084-3 0  9995,2 51753  53.2154 232.4625 0002885  37.5220 322.5973 15.08820581 45748,6917.94,95.439,541.8009999999998,537.809,0.0
51753.0,STARLINK-3507,PAYLOAD,2022-12-10 00:10:28,15.08818711,0.0002965,53.2151,231.8667,35.2261,324.8926,-0.00031193,-5.247e-05,0.0,0 STARLINK-3507,1 51753U 22016AR  22344.00727963 -.00005247  00000-0 -31193-3 0  9991,2 51753  53.2151 231.8667 0002965  35.2261 324.8926 15.08818711 44703,6917.945,95.439,541.862,537.759,0.0
51753.0,STARLINK-3507,PAYLOAD,2022-12-10 16:04:21,15.08819264,0.0002761,53.2149,228.8943,39.9693,320.1502,-0.00027587,-4.674e-05,0.0,0 STARLINK-3507,1 51753U 22016AR  22344.66969265 -.00004674  00000-0 -27587-3 0  9991,2 51753  53.2149 228.8943 0002761  39.9693 320.1502 15.08819264 44801,6917.944,95.439,541.719,537.899,0.0
51753.0,STARLINK-3507,PAYLOAD,2022-12-11 01:36:39,15.08838105,0.0003055,53.2157,227.1092,32.7452,327.3729,0.00015525,2.183e-05,0.0,0 STARLINK-3507,1 51753U 22016AR  22345.06712902  .00002183  00000-0  15525-3 0  9990,2 51753  53.2157 227.1092 0003055  32.7452 327.3729 15.08838105 45927,6917.886,95.438,541.865,537.638,0.0
51753.0,STARLINK-3507,PAYLOAD,2022-12-11 20:41:17,15.08845405,0.0002894,53.2154,223.5386,30.7066,329.4095,0.00051518,7.922e-05,0.0,0 STARLINK-3507,1 51753U 22016AR  22345.86200793  .00007922  00000-0  51518-3 0  9996,2 51753  53.2154 223.5386 0002894  30.7066 329.4095 15.08845405 44984,6917.864000000001,95.437,541.731,537.727,0.0
51753.0,STARLINK-3507,PAYLOAD,2022-12-11 23:52:03,15.0884423,0.0002993,53.2151,222.9461,29.0826,331.0332,0.0004614,7.064e-05,0.0,0 STARLINK-3507,1 51753U 22016AR  22345.99448901  .00007064  00000-0  46140-3 0  9997,2 51753  53.2151 222.9461 0002993  29.0826 331.0332 15.08844230 45005,6917.8669999999975,95.437,541.803,537.6619999999998,0.0
51753.0,STARLINK-3507,PAYLOAD,2022-12-12 17:21:18,15.08840388,0.0003009,53.215,219.6748,29.1164,330.9996,0.00017412,2.484e-05,0.0,0 STARLINK-3507,1 51753U 22016AR  22346.72313083  .00002484  00000-0  17412-3 0  9992,2 51753  53.2150 219.6748 0003009  29.1164 330.9996 15.08840388 46173,6917.879,95.438,541.826,537.663,0.0
51753.0,STARLINK-3507,PAYLOAD,2022-12-12 18:56:40,15.08893003,0.0002982,53.2162,219.3772,15.0623,345.0457,-0.00058544,-9.608e-05,0.0,0 STARLINK-3507,1 51753U 22016AR  22346.78935526 -.00009608  00000-0 -58544-3 0  9998,2 51753  53.2162 219.3772 0002982  15.0623 345.0457 15.08893003 45128,6917.718000000003,95.434,541.646,537.521,0.0
51753.0,STARLINK-3507,PAYLOAD,2022-12-12 23:42:50,15.08827891,0.0002735,53.216,218.4842,32.0327,328.0831,0.00043452,6.632e-05,0.0,0 STARLINK-3507,1 51753U 22016AR  22346.98809005  .00006632  00000-0  43452-3 0  9996,2 51753  53.2160 218.4842 0002735  32.0327 328.0831 15.08827891 45152,6917.917,95.438,541.674,537.89,0.0
51753.0,STARLINK-3507,PAYLOAD,2022-12-13 20:22:50,15.08850427,0.0002863,53.2163,214.6194,34.8028,325.3151,-1.7332e-05,-5.65e-06,0.0,0 STARLINK-3507,1 51753U 22016AR  22347.84920020 -.00000565  00000-0 -17332-4 0  9993,2 51753  53.2163 214.6194 0002863  34.8028 325.3151 15.08850427 46341,6917.849,95.437,541.694,537.7330000000002,0.0
51753.0,STARLINK-3507,PAYLOAD,2022-12-14 01:08:59,15.08853978,0.0002907,53.2155,213.7261,32.413000000000004,327.7041,4.3705e-06,-2.19e-06,0.0,0 STARLINK-3507,1 51753U 22016AR  22348.04791537 -.00000219  00000-0  43705-5 0  9994,2 51753  53.2155 213.7261 0002907  32.4130 327.7041 15.08853978 45318,6917.8380000000025,95.437,541.714,537.692,0.0
51753.0,STARLINK-3507,PAYLOAD,2022-12-14 21:49:00,15.08844638,0.0002987,53.2151,209.8602,33.1021,327.0158,-2.1841e-07,-2.92e-06,0.0,0 STARLINK-3507,1 51753U 22016AR  22348.90903823 -.00000292  00000-0 -21841-6 0  9992,2 51753  53.2151 209.8602 0002987  33.1021 327.0158 15.08844638 45443,6917.866,95.437,541.798,537.665,0.0
51753.0,STARLINK-3507,PAYLOAD,2022-12-15 07:21:20,15.08838481,0.0003256999999999,53.2152,208.0764,36.9726,323.149,-5.9666e-05,-1.238e-05,0.0,0 STARLINK-3507,1 51753U 22016AR  22349.30648495 -.00001238  00000-0 -59666-4 0  9993,2 51753  53.2152 208.0764 0003257  36.9726 323.1490 15.08838481 46567,6917.885,95.438,542.003,537.497,0.0
51753.0,STARLINK-3507,PAYLOAD,2022-12-15 20:04:24,15.08843634,0.0002887,53.215,205.6965,32.0268,328.0899,4.5497000000000015e-06,-2.16e-06,0.0,0 STARLINK-3507,1 51753U 22016AR  22349.83639829 -.00000216  00000-0  45497-5 0  9994,2 51753  53.2150 205.6965 0002887  32.0268 328.0899 15.08843634 45581,6917.869000000002,95.437,541.731,537.737,0.0
51753.0,STARLINK-3507,PAYLOAD,2022-12-16 00:50:33,15.08846283,0.0002976,53.2149,204.8048,30.9186,329.1981,2.883e-05,1.7e-06,0.0,0 STARLINK-3507,1 51753U 22016AR  22350.03511529  .00000170  00000-0  28830-4 0  9993,2 51753  53.2149 204.8048 0002976  30.9186 329.1981 15.08846283 46675,6917.861,95.437,541.785,537.6669999999998,0.0
51753.0,STARLINK-3507,PAYLOAD,2022-12-16 13:33:38,15.08843799,0.0002866,53.2159,202.4272,31.4315,328.6848,9.2095e-05,1.178e-05,0.0,0 STARLINK-3507,1 51753U 22016AR  22350.56503286  .00001178  00000-0  92095-4 0  9995,2 51753  53.2159 202.4272 0002866  31.4315 328.6848 15.08843799 45693,6917.869000000002,95.437,541.716,537.751,0.0
51753.0,STARLINK-3507,PAYLOAD,2022-12-16 19:55:11,15.08838932,0.0002728,53.2155,201.2369,31.9986,328.1171,-2.1533e-06,-3.23e-06,0.0,0 STARLINK-3507,1 51753U 22016AR  22350.82999877 -.00000323  00000-0 -21533-5 0  9992,2 51753  53.2155 201.2369 0002728  31.9986 328.1171 15.08838932 46798,6917.884,95.438,541.636,537.861,0.0
51753.0,STARLINK-3507,PAYLOAD,2022-12-17 07:02:54,15.08831267,0.000305,53.2156,199.1535,29.9276,330.189,-0.00012187,-2.227e-05,0.0,0 STARLINK-3507,1 51753U 22016AR  22351.29368888 -.00002227  00000-0 -12187-3 0  9994,2 51753  53.2156 199.1535 0003050  29.9276 330.1890 15.08831267 46860,6917.906999999997,95.438,541.882,537.6619999999998,0.0
51753.0,STARLINK-3507,PAYLOAD,2022-12-17 13:24:27,15.08825904,0.0002984,53.2153,197.9641,31.853,328.2642,-4.5808e-05,-1.017e-05,0.0,0 STARLINK-3507,1 51753U 22016AR  22351.55865259 -.00001017  00000-0 -45808-4 0  9990,2 51753  53.2153 197.9641 0002984  31.8530 328.2642 15.08825904 45842,6917.9230000000025,95.438,541.8530000000002,537.724,0.0
51753.0,STARLINK-3507,PAYLOAD,2022-12-17 19:45:59,15.08835244,0.0002947,53.2157,196.7759,29.1942,330.9215,-8.099399999999999e-05,-1.577e-05,0.0,0 STARLINK-3507,1 51753U 22016AR  22351.82360942 -.00001577  00000-0 -80994-4 0  9995,2 51753  53.2157 196.7759 0002947  29.1942 330.9215 15.08835244 45887,6917.895,95.438,541.799,537.721,0.0
51753.0,STARLINK-3507,PAYLOAD,2022-12-18 13:15:14,15.08836152,0.0002948,53.2156,193.5053,33.7716,326.3463,-2.6418e-05,-7.09e-06,0.0,0 STARLINK-3507,1 51753U 22016AR  22352.55225046 -.00000709  00000-0 -26418-4 0  9998,2 51753  53.2156 193.5053 0002948  33.7716 326.3463 15.08836152 47053,6917.892,95.438,541.797,537.7180000000002,0.0
51753.0,STARLINK-3507,PAYLOAD,2022-12-18 19:36:46,15.08834952,0.0003003999999999,53.215,192.3154,30.2187,329.8978,4.6272e-05,4.48e-06,0.0,0 STARLINK-3507,1 51753U 22016AR  22352.81721047  .00000448  00000-0  46272-4 0  9997,2 51753  53.2150 192.3154 0003004  30.2187 329.8978 15.08834952 46036,6917.896,95.438,541.839,537.683,0.0
51753.0,STARLINK-3507,PAYLOAD,2022-12-19 08:19:52,15.08833772,0.0003006,53.2151,189.9367,32.5264,327.5913,0.00017721,2.533e-05,0.0,0 STARLINK-3507,1 51753U 22016AR  22353.34713156  .00002533  00000-0  17721-3 0  9991,2 51753  53.2151 189.9367 0003006  32.5264 327.5913 15.08833772 46110,6917.899,95.438,541.844,537.685,0.0
